[{"OBJECT_NAME":"ANSER FOLLOWER 2","OBJECT_ID":"2023-155C","EPOCH":"2026-03-05T19:43:56.461728","MEAN_MOTION":15.37516487,"ECCENTRICITY":6.896e-5,"INCLINATION":97.5578,"RA_OF_ASC_NODE":150.2317,"ARG_OF_PERICENTER":152.695,"MEAN_ANOMALY":207.4331,"EPHEMERIS_TYPE":0,"CLASSIFICATION_TYPE":"U","NORAD_CAT_ID":58018,"ELEMENT_SET_NO":999,"REV_AT_EPOCH":13302,"BSTAR":0.00060275793,"MEAN_MOTION_DOT":0.00022135,"MEAN_MOTION_DDOT":0},{"OBJECT_NAME":"COSMOS 1869","OBJECT_ID":"1987-062A","EPOCH":"2026-03-09T20:30:29.271744","MEAN_MOTION":15.35392408,"ECCENTRICITY":0.00185772,"INCLINATION":82.5127,"RA_OF_ASC_NODE":201.6716,"ARG_OF_PERICENTER":61.4986,"MEAN_ANOMALY":298.8125,"EPHEMERIS_TYPE":0,"CLASSIFICATION_TYPE":"U","NORAD_CAT_ID":18214,"ELEMENT_SET_NO":999,"REV_AT_EPOCH":8931,"BSTAR":0.00042037944,"MEAN_MOTION_DOT":0.00014573,"MEAN_MOTION_DDOT":0}]
